[{"OBJECT_NAME":"STARLINK-1653","OBJECT_ID":"2020-062AD","EPOCH":"2026-03-10T00:00:02.999808","MEAN_MOTION":15.59225016,"ECCENTRICITY":0.00059506,"INCLINATION":53.0453,"RA_OF_ASC_NODE":320.9315,"ARG_OF_PERICENTER":251.2648,"MEAN_ANOMALY":247.8149,"EPHEMERIS_TYPE":0,"CLASSIFICATION_TYPE":"U","NORAD_CAT_ID":46352,"ELEMENT_SET_NO":999,"REV_AT_EPOCH":583,"BSTAR":0.0018332466,"MEAN_MOTION_DOT":0.00148839,"MEAN_MOTION_DDOT":0},{"OBJECT_NAME":"CZ-3B DEB","OBJECT_ID":"2010-042L","EPOCH":"2026-02-18T23:24:18.755712","MEAN_MOTION":2.62871057,"ECCENTRICITY":0.69706949,"INCLINATION":26.9874,"RA_OF_ASC_NODE":41.4139,"ARG_OF_PERICENTER":231.3711,"MEAN_ANOMALY":43.1888,"EPHEMERIS_TYPE":0,"CLASSIFICATION_TYPE":"U","NORAD_CAT_ID":40159,"ELEMENT_SET_NO":999,"REV_AT_EPOCH":10127,"BSTAR":0.007300849,"MEAN_MOTION_DOT":7.611e-5,"MEAN_MOTION_DDOT":0}]
